JY1SAT (JO-97)          
1 43803U 18099AX  26068.68634132  .00017774  00000+0  60804-3 0  9996
2 43803  97.4249 131.3625 0004723 256.6795 103.3919 15.30302628398390
STARLINK-36459          
1 67427U 26005Z   26067.90815215  .00033927  00000+0  12378-2 0  9997
2 67427  43.0005 242.6774 0001488 264.8725  95.1957 15.27551516  8560
